[{"OBJECT_NAME":"STARLINK-32844","OBJECT_ID":"2025-018Q","EPOCH":"2026-03-09T22:07:10.014816","MEAN_MOTION":15.30210529,"ECCENTRICITY":0.00013263,"INCLINATION":53.1607,"RA_OF_ASC_NODE":308.5294,"ARG_OF_PERICENTER":146.5789,"MEAN_ANOMALY":213.5296,"EPHEMERIS_TYPE":0,"CLASSIFICATION_TYPE":"U","NORAD_CAT_ID":62820,"ELEMENT_SET_NO":999,"REV_AT_EPOCH":6320,"BSTAR":0.00087323671,"MEAN_MOTION_DOT":0.00025601,"MEAN_MOTION_DDOT":0},{"OBJECT_NAME":"TRANSPORTER-1 OBJECT AA","OBJECT_ID":"2021-006AA","EPOCH":"2026-03-09T22:58:14.761920","MEAN_MOTION":15.29982294,"ECCENTRICITY":0.00086604,"INCLINATION":97.2381,"RA_OF_ASC_NODE":112.457,"ARG_OF_PERICENTER":185.709,"MEAN_ANOMALY":174.4054,"EPHEMERIS_TYPE":0,"CLASSIFICATION_TYPE":"U","NORAD_CAT_ID":47437,"ELEMENT_SET_NO":999,"REV_AT_EPOCH":28414,"BSTAR":0.0002197941,"MEAN_MOTION_DOT":6.312e-5,"MEAN_MOTION_DDOT":0}]
